[{"OBJECT_NAME":"ONEWEB-0135","OBJECT_ID":"2020-100Z","EPOCH":"2026-03-09T21:53:28.589280","MEAN_MOTION":13.12441466,"ECCENTRICITY":0.00019493,"INCLINATION":87.8996,"RA_OF_ASC_NODE":10.379,"ARG_OF_PERICENTER":89.689,"MEAN_ANOMALY":270.4462,"EPHEMERIS_TYPE":0,"CLASSIFICATION_TYPE":"U","NORAD_CAT_ID":47281,"ELEMENT_SET_NO":999,"REV_AT_EPOCH":25171,"BSTAR":0.00077966236,"MEAN_MOTION_DOT":2.93e-6,"MEAN_MOTION_DDOT":0},{"OBJECT_NAME":"CZ-4C DEB","OBJECT_ID":"2015-040C","EPOCH":"2026-03-09T03:23:21.887520","MEAN_MOTION":13.1056365,"ECCENTRICITY":0.01506715,"INCLINATION":100.3116,"RA_OF_ASC_NODE":42.347,"ARG_OF_PERICENTER":180.9058,"MEAN_ANOMALY":179.18,"EPHEMERIS_TYPE":0,"CLASSIFICATION_TYPE":"U","NORAD_CAT_ID":43424,"ELEMENT_SET_NO":999,"REV_AT_EPOCH":49912,"BSTAR":0.00056122844,"MEAN_MOTION_DOT":1.65e-6,"MEAN_MOTION_DDOT":0}]
